[{"OBJECT_NAME":"CAS500-3","OBJECT_ID":"2025-274F","EPOCH":"2026-03-09T17:15:29.131488","MEAN_MOTION":14.88373235,"ECCENTRICITY":0.00084602,"INCLINATION":97.7401,"RA_OF_ASC_NODE":359.0468,"ARG_OF_PERICENTER":99.396,"MEAN_ANOMALY":260.8214,"EPHEMERIS_TYPE":0,"CLASSIFICATION_TYPE":"U","NORAD_CAT_ID":66655,"ELEMENT_SET_NO":999,"REV_AT_EPOCH":1535,"BSTAR":0.00019463023,"MEAN_MOTION_DOT":1.75e-5,"MEAN_MOTION_DDOT":0},{"OBJECT_NAME":"CZ-6A DEB","OBJECT_ID":"2022-151BY","EPOCH":"2026-03-09T19:54:31.094784","MEAN_MOTION":14.84736827,"ECCENTRICITY":0.00926882,"INCLINATION":98.6307,"RA_OF_ASC_NODE":160.4734,"ARG_OF_PERICENTER":65.7458,"MEAN_ANOMALY":295.3404,"EPHEMERIS_TYPE":0,"CLASSIFICATION_TYPE":"U","NORAD_CAT_ID":54329,"ELEMENT_SET_NO":999,"REV_AT_EPOCH":17696,"BSTAR":0.0019746466,"MEAN_MOTION_DOT":0.00018045,"MEAN_MOTION_DDOT":0}]
